OBJECT_NAME,OBJECT_ID,EPOCH,MEAN_MOTION,ECCENTRICITY,INCLINATION,RA_OF_ASC_NODE,ARG_OF_PERICENTER,MEAN_ANOMALY,EPHEMERIS_TYPE,CLASSIFICATION_TYPE,NORAD_CAT_ID,ELEMENT_SET_NO,REV_AT_EPOCH,BSTAR,MEAN_MOTION_DOT,MEAN_MOTION_DDOT
SHIJIAN-25 (SJ-25),2025-002A,2026-06-16T18:30:10.986336,1.00265718,.005232,5.1127,61.1698,173.3150,75.3771,0,U,62485,999,535,0,-.356E-5,0
TJS-14,2025-017A,2026-06-16T18:13:45.386112,1.00274106,.0000958,0.7830,295.6120,289.2786,331.9643,0,U,62804,999,526,0,.114E-5,0
SPAINSAT NG I,2025-021A,2026-06-15T06:21:20.556000,1.00272968,.00003009,0.0139,329.3913,248.3938,170.1087,0,U,62852,999,396,0,.155E-5,0
QZS-6 (MICHIBIKI-6),2025-023A,2026-06-16T23:42:38.835936,1.00270672,.0001728,0.0533,70.1823,20.9396,260.3098,0,U,62876,999,494,0,-.236E-5,0
ZHONGXING-10R,2025-036A,2026-06-16T23:48:23.285952,1.00271887,.0003438,0.0290,237.9081,262.2463,232.7324,0,U,63075,999,495,0,-.355E-5,0
TJS-15,2025-045A,2026-06-16T17:57:56.632032,1.00271464,.0004648,0.2847,85.4958,296.6754,246.7229,0,U,63157,999,475,0,-.267E-5,0
TIANLIAN 2-04,2025-062A,2026-06-16T20:14:23.822592,1.00271726,.003171,4.3751,274.4460,10.3532,3.9614,0,U,63361,999,460,0,-.136E-5,0
TJS-16,2025-064A,2026-06-16T16:06:00.664128,1.00271331,.0003339,1.0973,81.4595,289.3184,296.2702,0,U,63397,999,438,0,-.108E-5,0
TJS-17,2025-073A,2026-06-16T16:05:56.103072,1.00272042,.0002064,1.0632,82.6981,296.4816,291.7766,0,U,63524,999,428,0,-.72E-6,0
TIANLIAN 2-05,2025-084A,2026-06-16T14:49:17.825952,1.00270133,.0003083,4.4523,279.8444,146.4359,81.2757,0,U,63662,999,437,0,.125E-5,0
TJS-19,2025-097A,2026-06-16T18:29:42.488160,1.00265537,.0002331,3.2868,317.4435,240.8546,125.3100,0,U,63924,999,414,0,-.279E-5,0
CHINASAT 3B,2025-106A,2026-06-15T18:59:18.860928,1.00270225,.00029044,0.0277,96.0818,28.9177,231.2153,0,U,64062,999,404,0,-.44E-6,0
SXM-10,2025-122A,2026-06-15T00:23:38.718240,1.00271714,.00017158,0.0180,20.5552,338.6402,153.8564,0,U,64290,999,366,0,-.12E-6,0
COSMOS 2589,2025-131A,2026-06-16T16:51:35.330400,1.00272590,.0000158,0.0334,77.5750,35.1125,143.1463,0,U,64467,999,355,0,-.293E-5,0
CHINASAT 9C,2025-132A,2026-06-16T19:06:10.296864,1.00267199,.0002615,0.0162,23.6497,60.1361,200.0139,0,U,64470,999,414,0,0,0
MTG-S1,2025-143A,2026-06-16T18:07:33.631104,1.00272107,.0000992,0.6036,338.8844,11.8800,182.6770,0,U,64723,999,341,0,-.34E-6,0
DROR 1,2025-148A,2026-06-16T02:43:46.303968,1.00271951,.00025288,0.0330,62.1203,326.4863,272.7226,0,U,64784,999,328,0,-.34E-6,0
SHIYAN-29,2025-196A,2026-06-16T15:01:44.621760,1.00285300,.0012716,28.8209,18.5428,177.5752,28.7403,0,U,65486,999,287,0,-.283E-5,0
NUSANTARA LIMA (NUSANTARA 5),2025-205A,2026-06-15T08:27:53.674848,1.00268607,.00001767,0.0174,94.9813,63.4458,345.0370,0,U,65588,999,270,0,-.354E-5,0
TJS-20,2025-238A,2026-06-16T22:33:48.818304,1.00274449,.000453,5.4697,299.5592,163.3095,203.2324,0,U,66142,999,233,0,.23E-6,0
CMS-03 (GSAT-7R),2025-249B,2026-06-16T22:47:58.926048,1.00269806,.0001583,0.0170,29.6351,52.3478,239.2165,0,U,66311,999,234,0,0,0
VIASAT-3 F2,2025-261A,2026-06-17T03:10:54.765120,1.00271417,.0000035,0.0469,163.4454,60.9464,9.7541,0,U,66454,999,279,0,-.237E-5,0
SHIJIAN-28 (SJ-28),2025-277A,2026-06-16T18:42:08.176320,1.00277263,.0001332,4.5388,272.1423,38.3017,351.8415,0,U,66549,999,215,0,-.36E-5,0
TJS-22,2025-290A,2026-06-16T21:03:03.049632,1.00273567,.000191,1.5294,286.5476,330.1354,30.7079,0,U,66990,999,202,0,-.9E-7,0
TJS-23,2025-306A,2026-06-16T14:28:57.859680,1.00275313,.0005402,5.5893,297.4902,170.6667,189.5214,0,U,67226,999,188,0,.19E-6,0
FENGYUN 4C,2025-312A,2026-06-15T17:06:54.443232,1.00271142,.00005195,0.0518,146.7003,68.8923,78.1215,0,U,67246,999,176,0,-.321E-5,0
SHIJIAN-29A (SJ-29A),2025-315A,2026-06-16T18:12:23.966208,1.00269687,.0003122,3.3971,95.1173,25.2432,130.9515,0,U,67302,999,161,0,-.71E-6,0
SHIJIAN-29B (SJ-29B),2025-315C,2026-06-16T18:12:23.961888,1.00269443,.0003765,3.3960,95.1099,33.4713,122.7700,0,U,67403,999,168,0,-.72E-6,0
ELEKTRO-L 5,2026-028A,2026-06-16T01:18:34.428096,1.00271122,.00017777,0.2536,311.1649,180.5166,228.3300,0,U,67756,999,124,0,-.97E-6,0
JAM-E JAM 1,2026-028B,2026-06-16T18:18:30.234816,1.00275299,.0001196,0.2605,302.2651,298.1034,333.2373,0,U,67757,999,111,0,.153E-5,0
ECHOSTAR 25,2026-045A,2026-06-17T09:20:02.109120,1.00270022,.0001781,0.0187,16.9910,70.8864,207.7878,0,U,68126,999,99,0,0,0
