SHIJIAN-25 (SJ-25)      
1 62485U 25002A   26167.77096049 -.00000356  00000+0  00000+0 0  9991
2 62485   5.1127  61.1698 0052320 173.3150  75.3771  1.00265718  5359
TJS-14                  
1 62804U 25017A   26167.75955308  .00000114  00000+0  00000+0 0  9993
2 62804   0.7830 295.6120 0000958 289.2786 331.9643  1.00274106  5262
SPAINSAT NG I           
1 62852U 25021A   26166.26482125  .00000155  00000+0  00000+0 0  9993
2 62852   0.0139 329.3913 0000300 248.3938 170.1087  1.00272968  3965
QZS-6 (MICHIBIKI-6)     
1 62876U 25023A   26167.98794949 -.00000236  00000+0  00000+0 0  9992
2 62876   0.0533  70.1823 0001728  20.9396 260.3098  1.00270672  4940
ZHONGXING-10R           
1 63075U 25036A   26167.99193618 -.00000355  00000+0  00000+0 0  9997
2 63075   0.0290 237.9081 0003438 262.2463 232.7324  1.00271887  4952
TJS-15                  
1 63157U 25045A   26167.74857213 -.00000267  00000+0  00000+0 0  9991
2 63157   0.2847  85.4958 0004648 296.6754 246.7229  1.00271464  4758
TIANLIAN 2-04           
1 63361U 25062A   26167.84333128 -.00000136  00000+0  00000+0 0  9997
2 63361   4.3751 274.4460 0031710  10.3532   3.9614  1.00271726  4603
TJS-16                  
1 63397U 25064A   26167.67084102 -.00000108  00000+0  00000+0 0  9993
2 63397   1.0973  81.4595 0003339 289.3184 296.2702  1.00271331  4386
TJS-17                  
1 63524U 25073A   26167.67078823 -.00000072  00000+0  00000+0 0  9998
2 63524   1.0632  82.6981 0002064 296.4816 291.7766  1.00272042  4286
TIANLIAN 2-05           
1 63662U 25084A   26167.61756743  .00000125  00000+0  00000+0 0  9999
2 63662   4.4523 279.8444 0003083 146.4359  81.2757  1.00270133  4378
TJS-19                  
1 63924U 25097A   26167.77063065 -.00000279  00000+0  00000+0 0  9990
2 63924   3.2868 317.4435 0002331 240.8546 125.3100  1.00265537  4148
CHINASAT 3B             
1 64062U 25106A   26166.79119052 -.00000044  00000+0  00000+0 0  9994
2 64062   0.0277  96.0818 0002904  28.9177 231.2153  1.00270225  4041
SXM-10                  
1 64290U 25122A   26166.01642035 -.00000012  00000+0  00000+0 0  9997
2 64290   0.0180  20.5552 0001715 338.6402 153.8564  1.00271714  3661
COSMOS 2589             
1 64467U 25131A   26167.70249225 -.00000293  00000+0  00000+0 0  9995
2 64467   0.0334  77.5750 0000158  35.1125 143.1463  1.00272590  3552
CHINASAT 9C             
1 64470U 25132A   26167.79595251  .00000000  00000+0  00000+0 0  9997
2 64470   0.0162  23.6497 0002615  60.1361 200.0139  1.00267199  4143
MTG-S1                  
1 64723U 25143A   26167.75525036 -.00000034  00000+0  00000+0 0  9998
2 64723   0.6036 338.8844 0000992  11.8800 182.6770  1.00272107  3414
DROR 1                  
1 64784U 25148A   26167.11373037 -.00000034  00000+0  00000+0 0  9992
2 64784   0.0330  62.1203 0002528 326.4863 272.7226  1.00271951  3287
SHIYAN-29               
1 65486U 25196A   26167.62621090 -.00000283  00000+0  00000+0 0  9992
2 65486  28.8209  18.5428 0012716 177.5752  28.7403  1.00285300  2879
NUSANTARA LIMA (NUSANT*)
1 65588U 25205A   26166.35270457 -.00000354  00000+0  00000+0 0  9991
2 65588   0.0174  94.9813 0000176  63.4458 345.0370  1.00268607  2705
TJS-20                  
1 66142U 25238A   26167.94014836  .00000023  00000+0  00000+0 0  9999
2 66142   5.4697 299.5592 0004530 163.3095 203.2324  1.00274449  2337
CMS-03 (GSAT-7R)        
1 66311U 25249B   26167.94998757  .00000000  00000+0  00000+0 0  9997
2 66311   0.0170  29.6351 0001583  52.3478 239.2165  1.00269806  2348
VIASAT-3 F2             
1 66454U 25261A   26168.13257830 -.00000237  00000+0  00000+0 0  9994
2 66454   0.0469 163.4454 0000035  60.9464   9.7541  1.00271417  2797
SHIJIAN-28 (SJ-28)      
1 66549U 25277A   26167.77926130 -.00000360  00000+0  00000+0 0  9998
2 66549   4.5388 272.1423 0001332  38.3017 351.8415  1.00277263  2155
TJS-22                  
1 66990U 25290A   26167.87711863 -.00000009  00000+0  00000+0 0  9999
2 66990   1.5294 286.5476 0001910 330.1354  30.7079  1.00273567  2022
TJS-23                  
1 67226U 25306A   26167.60344745  .00000019  00000+0  00000+0 0  9992
2 67226   5.5893 297.4902 0005402 170.6667 189.5214  1.00275313  1881
FENGYUN 4C              
1 67246U 25312A   26166.71313013 -.00000321  00000+0  00000+0 0  9993
2 67246   0.0518 146.7003 0000519  68.8923  78.1215  1.00271142  1769
SHIJIAN-29A (SJ-29A)    
1 67302U 25315A   26167.75861072 -.00000071  00000+0  00000+0 0  9999
2 67302   3.3971  95.1173 0003122  25.2432 130.9515  1.00269687  1616
SHIJIAN-29B (SJ-29B)    
1 67403U 25315C   26167.75861067 -.00000072  00000+0  00000+0 0  9996
2 67403   3.3960  95.1099 0003765  33.4713 122.7700  1.00269443  1681
ELEKTRO-L 5             
1 67756U 26028A   26167.05456514 -.00000097  00000+0  00000+0 0  9996
2 67756   0.2536 311.1649 0001777 180.5166 228.3300  1.00271122  1244
JAM-E JAM 1             
1 67757U 26028B   26167.76284994  .00000153  00000+0  00000+0 0  9998
2 67757   0.2605 302.2651 0001196 298.1034 333.2373  1.00275299  1112
ECHOSTAR 25             
1 68126U 26045A   26168.38891330  .00000000  00000+0  00000+0 0  9996
2 68126   0.0187  16.9910 0001781  70.8864 207.7878  1.00270022   998
